IRIDIUM 155             
1 43573U 18061E   24045.49326402  .00000178  00000+0  56525-4 0  9995
2 43573  86.3930  53.4495 0001973  88.1809 271.9613 14.34216218291000
IRIDIUM 154             
1 43574U 18061F   24044.77655751 -.00000059  00000+0 -27992-4 0  9994
2 43574  86.3927  53.8411 0002294  86.9801 273.1657 14.34216689290940
IRIDIUM 163             
1 43575U 18061G   24044.75753198  .00000227  00000+0  73938-4 0  9993
2 43575  86.3928  53.7911 0002229  88.0614 272.0837 14.34219144290913
IRIDIUM 156             
1 43576U 18061H   24045.08099419  .00000076  00000+0  20149-4 0  9998
2 43576  86.3929  53.6620 0002171  96.7616 263.3827 14.34215912290949
IRIDIUM 164             
1 43577U 18061J   24044.78289905  .00000017  00000+0 -88783-6 0  9992
2 43577  86.3925  53.8138 0002275  94.0377 266.1078 14.34216969290955
IRIDIUM 159             
1 43578U 18061K   24044.96049107  .00000028  00000+0  28016-5 0  9994
2 43578  86.3927  53.6941 0002268  87.6448 272.5007 14.34216732290947
IRIDIUM 180             
1 43922U 19002A   24045.30882922  .00000144  00000+0  44515-4 0  9992
2 43922  86.4017 350.4463 0002232  85.5743 274.5707 14.34218041266648
IRIDIUM 176             
1 43923U 19002B   24044.94082501  .00002821  00000+0  44331-3 0  9996
2 43923  86.6147 350.6289 0002489  91.4459 268.7043 14.72267646273561
IRIDIUM 168             
1 43924U 19002C   24044.88387528  .00000162  00000+0  50664-4 0  9990
2 43924  86.4018 350.6770 0002226  83.5861 276.5588 14.34218382266520
IRIDIUM 173             
1 43925U 19002D   24044.80141941  .00000037  00000+0  60912-5 0  9999
2 43925  86.4012 350.6356 0002168  79.8588 280.2852 14.34216972266499
IRIDIUM 169             
1 43926U 19002E   24044.89871686  .00000944  00000+0  30200-3 0  9997
2 43926  86.4236  22.1879 0000687 324.6922  35.4231 14.38618806267405
IRIDIUM 172             
1 43927U 19002F   24045.21368287  .00000572  00000+0  19710-3 0  9993
2 43927  86.4013 350.4684 0002272  85.5698 274.5757 14.34215642266567
IRIDIUM 175             
1 43928U 19002G   24045.47863513  .00002883  00000+0  45296-3 0  9999
2 43928  86.1549 330.5523 0002354  84.4068 275.7417 14.72265190273637
IRIDIUM 171             
1 43929U 19002H   24045.33419919  .00000225  00000+0  73252-4 0  9994
2 43929  86.4023 350.6297 0002166  87.4354 272.7090 14.34218916266572
IRIDIUM 170             
1 43930U 19002J   24045.15090991  .00002903  00000+0  45623-3 0  9996
2 43930  86.6146 350.5458 0002352  90.0641 270.0845 14.72266392273600
IRIDIUM 167             
1 43931U 19002K   24044.90924330  .00000833  00000+0  29031-3 0  9997
2 43931  86.4013 350.6104 0002249  87.0586 273.0867 14.34218745266516
IRIDIUM 181             
1 56726U 23068S   24045.03054324  .00000471  00000+0  13341-3 0  9997
2 56726  86.8614  38.2380 0002454 104.6629 255.4844 14.43580064 39221
IRIDIUM 177             
1 56727U 23068T   24045.37902037  .00003608  00000+0  47158-3 0  9996
2 56727  86.2028  14.1192 0002964 100.2207 259.9349 14.80207105 40065
IRIDIUM 174             
1 56728U 23068U   24045.44117692  .00003939  00000+0  51505-3 0  9998
2 56728  86.1986  14.1898 0002530  90.4087 269.7424 14.80209628 40072
IRIDIUM 178             
1 56729U 23068V   24044.89519237  .00003705  00000+0  48380-3 0  9996
2 56729  86.5790  26.0114 0002689  90.2226 269.9304 14.80259367 39994
IRIDIUM 179             
1 56730U 23068W   24045.22785761  .00003799  00000+0  49607-3 0  9999
2 56730  86.6796  28.4407 0002578  94.9636 265.1880 14.80260495 40046
